{"type": "FeatureCollection", "features": [ {"type": "Feature", "properties": {"norad_id": 34432, "name": "COSMOS 2251 DEB", "group": "cosmos-2251-debris", "lat": 45.2302591827543, "lon": -88.51435016237915, "alt_km": 810.2303515818785, "timestamp": "2025-12-09T05:43:21.120763+00:00", "meta": {"OBJECT_NAME": "COSMOS 2251 DEB", "OBJECT_ID": "1993-036RZ", "EPOCH": "2025-12-08T19:32:50.004960", "MEAN_MOTION": 14.02881819, "ECCENTRICITY": 0.0182818, "INCLINATION": 73.8287, "RA_OF_ASC_NODE": 109.2404, "ARG_OF_PERICENTER": 192.5149, "MEAN_ANOMALY": 321.1458, "EPHEMERIS_TYPE": 0, "CLASSIFICATION_TYPE": "U", "NORAD_CAT_ID": 34432, "ELEMENT_SET_NO": 999, "REV_AT_EPOCH": 85629, "BSTAR": 0.0023168, "MEAN_MOTION_DOT": 4.136e-05, "MEAN_MOTION_DDOT": 0}, "tle": {"line1": "1 34432U 93036RZ  25342.81446765  .00004136  00000+0  23168-2 0  9999", "line2": "2 34432  73.8287 109.2404 0182818 192.5149 321.1458 14.02881819856298"}}, "geometry": {"type": "Point", "coordinates": [-88.51435016237915, 45.2302591827543]}}, {"type": "Feature", "properties": {"norad_id": 34433, "name": "COSMOS 2251 DEB", "group": "cosmos-2251-debris", "lat": 33.18799428716365, "lon": 171.9506439265118, "alt_km": 854.976726728326, "timestamp": "2025-12-09T05:43:21.120773+00:00", "meta": {"OBJECT_NAME": "COSMOS 2251 DEB", "OBJECT_ID": "1993-036SA", "EPOCH": "2025-12-08T12:33:58.063680", "MEAN_MOTION": 14.12825475, "ECCENTRICITY": 0.01518934, "INCLINATION": 74.0115, "RA_OF_ASC_NODE": 162.4073, "ARG_OF_PERICENTER": 301.3386, "MEAN_ANOMALY": 57.2962, "EPHEMERIS_TYPE": 0, "CLASSIFICATION_TYPE": "U", "NORAD_CAT_ID": 34433, "ELEMENT_SET_NO": 999, "REV_AT_EPOCH": 85890, "BSTAR": 0.0018528161, "MEAN_MOTION_DOT": 3.818e-05, "MEAN_MOTION_DDOT": 0}, "tle": {"line1": "1 34433U 93036SA  25342.52358870  .00003818  00000+0  18528-2 0  9997", "line2": "2 34433  74.0115 162.4073 0151893 301.3386  57.2962 14.12825475858901"}}, "geometry": {"type": "Point", "coordinates": [171.9506439265118, 33.18799428716365]}}, {"type": "Feature", "properties": {"norad_id": 34434, "name": "COSMOS 2251 DEB", "group": "cosmos-2251-debris", "lat": -35.14931865567637, "lon": -152.31513796110923, "alt_km": 838.016095164011, "timestamp": "2025-12-09T05:43:21.120784+00:00", "meta": {"OBJECT_NAME": "COSMOS 2251 DEB", "OBJECT_ID": "1993-036SB", "EPOCH": "2025-12-08T06:42:48.352320", "MEAN_MOTION": 13.89763256, "ECCENTRICITY": 0.02754246, "INCLINATION": 74.0629, "RA_OF_ASC_NODE": 17.7084, "ARG_OF_PERICENTER": 156.0458, "MEAN_ANOMALY": 303.1225, "EPHEMERIS_TYPE": 0, "CLASSIFICATION_TYPE": "U", "NORAD_CAT_ID": 34434, "ELEMENT_SET_NO": 999, "REV_AT_EPOCH": 83904, "BSTAR": 0.0029087302, "MEAN_MOTION_DOT": 4.827e-05, "MEAN_MOTION_DDOT": 0}, "tle": {"line1": "1 34434U 93036SB  25342.27972630  .00004827  00000+0  29087-2 0  9999", "line2": "2 34434  74.0629  17.7084 0275424 156.0458 303.1225 13.89763256839048"}}, "geometry": {"type": "Point", "coordinates": [-152.31513796110923, -35.14931865567637]}}, {"type": "Feature", "properties": {"norad_id": 34446, "name": "COSMOS 2251 DEB", "group": "cosmos-2251-debris", "lat": 9.922197514312472, "lon": 66.71710620437841, "alt_km": 764.6947753957475, "timestamp": "2025-12-09T05:43:21.120794+00:00", "meta": {"OBJECT_NAME": "COSMOS 2251 DEB", "OBJECT_ID": "1993-036SP", "EPOCH": "2025-12-08T06:28:55.833024", "MEAN_MOTION": 14.49345368, "ECCENTRICITY": 0.00513644, "INCLINATION": 74.0422, "RA_OF_ASC_NODE": 65.6632, "ARG_OF_PERICENTER": 204.7187, "MEAN_ANOMALY": 155.1512, "EPHEMERIS_TYPE": 0, "CLASSIFICATION_TYPE": "U", "NORAD_CAT_ID": 34446, "ELEMENT_SET_NO": 999, "REV_AT_EPOCH": 88629, "BSTAR": 0.0003012998, "MEAN_MOTION_DOT": 1.142e-05, "MEAN_MOTION_DDOT": 0}, "tle": {"line1": "1 34446U 93036SP  25342.27009066  .00001142  00000+0  30130-3 0  9995", "line2": "2 34446  74.0422  65.6632 0051364 204.7187 155.1512 14.49345368886298"}}, "geometry": {"type": "Point", "coordinates": [66.71710620437841, 9.922197514312472]}}, {"type": "Feature", "properties": {"norad_id": 34449, "name": "COSMOS 2251 DEB", "group": "cosmos-2251-debris", "lat": -50.97843430643923, "lon": 56.92852920161901, "alt_km": 606.8154614715577, "timestamp": "2025-12-09T05:43:21.120805+00:00", "meta": {"OBJECT_NAME": "COSMOS 2251 DEB", "OBJECT_ID": "1993-036SS", "EPOCH": "2025-12-08T17:39:25.551360", "MEAN_MOTION": 14.9449464, "ECCENTRICITY": 0.0023622, "INCLINATION": 74.0326, "RA_OF_ASC_NODE": 78.6312, "ARG_OF_PERICENTER": 123.9757, "MEAN_ANOMALY": 358.5514, "EPHEMERIS_TYPE": 0, "CLASSIFICATION_TYPE": "U", "NORAD_CAT_ID": 34449, "ELEMENT_SET_NO": 999, "REV_AT_EPOCH": 88633, "BSTAR": 0.0038729, "MEAN_MOTION_DOT": 0.00042265, "MEAN_MOTION_DDOT": 0}, "tle": {"line1": "1 34449U 93036SS  25342.73571240  .00042265  00000+0  38729-2 0  9999", "line2": "2 34449  74.0326  78.6312 0023622 123.9757 358.5514 14.94494640886338"}}, "geometry": {"type": "Point", "coordinates": [56.92852920161901, -50.97843430643923]}}, {"type": "Feature", "properties": {"norad_id": 34451, "name": "COSMOS 2251 DEB", "group": "cosmos-2251-debris", "lat": -73.97730154614615, "lon": -0.10365128120204657, "alt_km": 603.6236744090202, "timestamp": "2025-12-09T05:43:21.120815+00:00", "meta": {"OBJECT_NAME": "COSMOS 2251 DEB", "OBJECT_ID": "1993-036SU", "EPOCH": "2025-12-08T17:17:09.360672", "MEAN_MOTION": 14.95183105, "ECCENTRICITY": 0.0024636, "INCLINATION": 74.0463, "RA_OF_ASC_NODE": 95.9753, "ARG_OF_PERICENTER": 118.67, "MEAN_ANOMALY": 241.6966, "EPHEMERIS_TYPE": 0, "CLASSIFICATION_TYPE": "U", "NORAD_CAT_ID": 34451, "ELEMENT_SET_NO": 999, "REV_AT_EPOCH": 88575, "BSTAR": 0.0038626, "MEAN_MOTION_DOT": 0.00042922, "MEAN_MOTION_DDOT": 0}, "tle": {"line1": "1 34451U 93036SU  25342.72024723  .00042922  00000+0  38626-2 0  9996", "line2": "2 34451  74.0463  95.9753 0024636 118.6700 241.6966 14.95183105885759"}}, "geometry": {"type": "Point", "coordinates": [-0.10365128120204657, -73.97730154614615]}}, {"type": "Feature", "properties": {"norad_id": 34452, "name": "COSMOS 2251 DEB", "group": "cosmos-2251-debris", "lat": 24.955404900925295, "lon": 2.410191330407468, "alt_km": 548.4597609378552, "timestamp": "2025-12-09T05:43:21.120826+00:00", "meta": {"OBJECT_NAME": "COSMOS 2251 DEB", "OBJECT_ID": "1993-036SV", "EPOCH": "2025-12-08T07:18:37.371744", "MEAN_MOTION": 15.11504343, "ECCENTRICITY": 0.00668886, "INCLINATION": 74.0358, "RA_OF_ASC_NODE": 191.9971, "ARG_OF_PERICENTER": 269.2765, "MEAN_ANOMALY": 206.024, "EPHEMERIS_TYPE": 0, "CLASSIFICATION_TYPE": "U", "NORAD_CAT_ID": 34452, "ELEMENT_SET_NO": 999, "REV_AT_EPOCH": 90595, "BSTAR": 0.00089108454, "MEAN_MOTION_DOT": 0.00015921, "MEAN_MOTION_DDOT": 0}, "tle": {"line1": "1 34452U 93036SV  25342.30459921  .00015921  00000+0  89108-3 0  9994", "line2": "2 34452  74.0358 191.9971 0066888 269.2765 206.0240 15.11504343905956"}}, "geometry": {"type": "Point", "coordinates": [2.410191330407468, 24.955404900925295]}}, {"type": "Feature", "properties": {"norad_id": 34453, "name": "COSMOS 2251 DEB", "group": "cosmos-2251-debris", "lat": -73.17131975217151, "lon": -2.4610405770839012, "alt_km": 355.0865743120585, "timestamp": "2025-12-09T05:43:21.120836+00:00", "meta": {"OBJECT_NAME": "COSMOS 2251 DEB", "OBJECT_ID": "1993-036SW", "EPOCH": "2025-12-08T17:54:20.651904", "MEAN_MOTION": 15.70960191, "ECCENTRICITY": 0.0021939, "INCLINATION": 74.11, "RA_OF_ASC_NODE": 108.2841, "ARG_OF_PERICENTER": 342.0248, "MEAN_ANOMALY": 18.0197, "EPHEMERIS_TYPE": 0, "CLASSIFICATION_TYPE": "U", "NORAD_CAT_ID": 34453, "ELEMENT_SET_NO": 999, "REV_AT_EPOCH": 88804, "BSTAR": 0.011594, "MEAN_MOTION_DOT": 0.01651435, "MEAN_MOTION_DDOT": 0}, "tle": {"line1": "1 34453U 93036SW  25342.74607236  .01651435  00000+0  11594-1 0  9996", "line2": "2 34453  74.1100 108.2841 0021939 342.0248  18.0197 15.70960191888048"}}, "geometry": {"type": "Point", "coordinates": [-2.4610405770839012, -73.17131975217151]}}, {"type": "Feature", "properties": {"norad_id": 34454, "name": "COSMOS 2251 DEB", "group": "cosmos-2251-debris", "lat": 24.504925160923843, "lon": -68.42811548953384, "alt_km": 741.5713120537921, "timestamp": "2025-12-09T05:43:21.120859+00:00", "meta": {"OBJECT_NAME": "COSMOS 2251 DEB", "OBJECT_ID": "1993-036SX", "EPOCH": "2025-12-08T12:55:03.487584", "MEAN_MOTION": 14.38798609, "ECCENTRICITY": 0.0035432, "INCLINATION": 74.0586, "RA_OF_ASC_NODE": 285.3747, "ARG_OF_PERICENTER": 348.7549, "MEAN_ANOMALY": 11.2809, "EPHEMERIS_TYPE": 0, "CLASSIFICATION_TYPE": "U", "NORAD_CAT_ID": 34454, "ELEMENT_SET_NO": 999, "REV_AT_EPOCH": 88007, "BSTAR": 0.00054026, "MEAN_MOTION_DOT": 1.647e-05, "MEAN_MOTION_DDOT": 0}, "tle": {"line1": "1 34454U 93036SX  25342.53823481  .00001647  00000+0  54026-3 0  9998", "line2": "2 34454  74.0586 285.3747 0035432 348.7549  11.2809 14.38798609880074"}}, "geometry": {"type": "Point", "coordinates": [-68.42811548953384, 24.504925160923843]}}, {"type": "Feature", "properties": {"norad_id": 34459, "name": "COSMOS 2251 DEB", "group": "cosmos-2251-debris", "lat": 32.23631714969782, "lon": 69.73059567407546, "alt_km": 1029.0042372041853, "timestamp": "2025-12-09T05:43:21.120871+00:00", "meta": {"OBJECT_NAME": "COSMOS 2251 DEB", "OBJECT_ID": "1993-036TC", "EPOCH": "2025-12-08T20:27:03.046176", "MEAN_MOTION": 14.00490124, "ECCENTRICITY": 0.0192024, "INCLINATION": 74.0792, "RA_OF_ASC_NODE": 260.7676, "ARG_OF_PERICENTER": 331.4236, "MEAN_ANOMALY": 27.6474, "EPHEMERIS_TYPE": 0, "CLASSIFICATION_TYPE": "U", "NORAD_CAT_ID": 34459, "ELEMENT_SET_NO": 999, "REV_AT_EPOCH": 85657, "BSTAR": 0.00098506, "MEAN_MOTION_DOT": 1.691e-05, "MEAN_MOTION_DDOT": 0}, "tle": {"line1": "1 34459U 93036TC  25342.85211859  .00001691  00000+0  98506-3 0  9998", "line2": "2 34459  74.0792 260.7676 0192024 331.4236  27.6474 14.00490124856576"}}, "geometry": {"type": "Point", "coordinates": [69.73059567407546, 32.23631714969782]}}]}